{
  "type": "FeatureCollection",
  "features": [
    {
      "type": "Feature",
      "properties": {
        "norad_id": 30561,
        "name": "FENGYUN 1C DEB",
        "group": "fengyun-1c-debris",
        "lat": -78.25844500836021,
        "lon": 111.36911515566366,
        "alt_km": 883.8206123129003,
        "timestamp": "2025-12-02T13:52:17.539408+00:00",
        "meta_object_name": "FENGYUN 1C DEB",
        "meta_object_id": "1999-025ALB",
        "meta_epoch": "2025-12-02T06:26:01.701600",
        "meta_mean_motion": 14.11252278,
        "meta_eccentricity": 0.00603791,
        "meta_inclination": 98.7248,
        "meta_ra_of_asc_node": 338.6991,
        "meta_arg_of_pericenter": 143.3196,
        "meta_mean_anomaly": 344.5796,
        "meta_ephemeris_type": 0,
        "meta_classification_type": "U",
        "meta_norad_cat_id": 30561,
        "meta_element_set_no": 999,
        "meta_rev_at_epoch": 96830,
        "meta_bstar": 0.00040237164,
        "meta_mean_motion_dot": 6.97e-06,
        "meta_mean_motion_ddot": 0,
        "tle_line1": "1 30561U 99025ALB 25336.26807525  .00000697  00000+0  40237-3 0  9994",
        "tle_line2": "2 30561  98.7248 338.6991 0060379 143.3196 344.5796 14.11252278968303"
      },
      "geometry": {
        "type": "Point",
        "coordinates": [
          111.36911515566366,
          -78.25844500836021
        ]
      }
    },
    {
      "type": "Feature",
      "properties": {
        "norad_id": 30562,
        "name": "FENGYUN 1C DEB",
        "group": "fengyun-1c-debris",
        "lat": 59.58378744481585,
        "lon": 29.136822205769214,
        "alt_km": 834.0384609072717,
        "timestamp": "2025-12-02T13:52:17.539418+00:00",
        "meta_object_name": "FENGYUN 1C DEB",
        "meta_object_id": "1999-025ALC",
        "meta_epoch": "2025-12-02T03:42:48.012768",
        "meta_mean_motion": 14.22934947,
        "meta_eccentricity": 0.0058436,
        "meta_inclination": 98.7648,
        "meta_ra_of_asc_node": 43.9513,
        "meta_arg_of_pericenter": 296.2639,
        "meta_mean_anomaly": 117.0543,
        "meta_ephemeris_type": 0,
        "meta_classification_type": "U",
        "meta_norad_cat_id": 30562,
        "meta_element_set_no": 999,
        "meta_rev_at_epoch": 96849,
        "meta_bstar": 0.001751099,
        "meta_mean_motion_dot": 3.965e-05,
        "meta_mean_motion_ddot": 0,
        "tle_line1": "1 30562U 99025ALC 25336.15472237  .00003965  00000+0  17511-2 0  9990",
        "tle_line2": "2 30562  98.7648  43.9513 0058436 296.2639 117.0543 14.22934947968490"
      },
      "geometry": {
        "type": "Point",
        "coordinates": [
          29.136822205769214,
          59.58378744481585
        ]
      }
    },
    {
      "type": "Feature",
      "properties": {
        "norad_id": 30564,
        "name": "FENGYUN 1C DEB",
        "group": "fengyun-1c-debris",
        "lat": -80.5588763345501,
        "lon": 100.0299224178438,
        "alt_km": 950.9695310178895,
        "timestamp": "2025-12-02T13:52:17.539428+00:00",
        "meta_object_name": "FENGYUN 1C DEB",
        "meta_object_id": "1999-025ALE",
        "meta_epoch": "2025-12-01T23:15:16.662240",
        "meta_mean_motion": 14.05712379,
        "meta_eccentricity": 0.02028613,
        "meta_inclination": 98.7969,
        "meta_ra_of_asc_node": 348.0649,
        "meta_arg_of_pericenter": 149.04,
        "meta_mean_anomaly": 275.114,
        "meta_ephemeris_type": 0,
        "meta_classification_type": "U",
        "meta_norad_cat_id": 30564,
        "meta_element_set_no": 999,
        "meta_rev_at_epoch": 96144,
        "meta_bstar": 0.00073944966,
        "meta_mean_motion_dot": 1.41e-05,
        "meta_mean_motion_ddot": 0,
        "tle_line1": "1 30564U 99025ALE 25335.96894285  .00001410  00000+0  73945-3 0  9998",
        "tle_line2": "2 30564  98.7969 348.0649 0202861 149.0400 275.1140 14.05712379961442"
      },
      "geometry": {
        "type": "Point",
        "coordinates": [
          100.0299224178438,
          -80.5588763345501
        ]
      }
    },
    {
      "type": "Feature",
      "properties": {
        "norad_id": 30565,
        "name": "FENGYUN 1C DEB",
        "group": "fengyun-1c-debris",
        "lat": -80.89489796614527,
        "lon": -40.72289178947277,
        "alt_km": 915.2360270279387,
        "timestamp": "2025-12-02T13:52:17.539438+00:00",
        "meta_object_name": "FENGYUN 1C DEB",
        "meta_object_id": "1999-025ALF",
        "meta_epoch": "2025-12-02T03:05:36.159936",
        "meta_mean_motion": 14.09820973,
        "meta_eccentricity": 0.01430534,
        "meta_inclination": 98.4546,
        "meta_ra_of_asc_node": 206.9884,
        "meta_arg_of_pericenter": 26.1857,
        "meta_mean_anomaly": 123.8662,
        "meta_ephemeris_type": 0,
        "meta_classification_type": "U",
        "meta_norad_cat_id": 30565,
        "meta_element_set_no": 999,
        "meta_rev_at_epoch": 95777,
        "meta_bstar": 0.0020829858,
        "meta_mean_motion_dot": 3.989e-05,
        "meta_mean_motion_ddot": 0,
        "tle_line1": "1 30565U 99025ALF 25336.12889074  .00003989  00000+0  20830-2 0  9995",
        "tle_line2": "2 30565  98.4546 206.9884 0143053  26.1857 123.8662 14.09820973957775"
      },
      "geometry": {
        "type": "Point",
        "coordinates": [
          -40.72289178947277,
          -80.89489796614527
        ]
      }
    },
    {
      "type": "Feature",
      "properties": {
        "norad_id": 30566,
        "name": "FENGYUN 1C DEB",
        "group": "fengyun-1c-debris",
        "lat": 37.08246257692904,
        "lon": -148.10708015407064,
        "alt_km": 832.2869019706195,
        "timestamp": "2025-12-02T13:52:17.539466+00:00",
        "meta_object_name": "FENGYUN 1C DEB",
        "meta_object_id": "1999-025ALG",
        "meta_epoch": "2025-12-02T01:35:22.439616",
        "meta_mean_motion": 14.11602625,
        "meta_eccentricity": 0.0068066,
        "meta_inclination": 99.2179,
        "meta_ra_of_asc_node": 24.3175,
        "meta_arg_of_pericenter": 211.521,
        "meta_mean_anomaly": 212.3,
        "meta_ephemeris_type": 0,
        "meta_classification_type": "U",
        "meta_norad_cat_id": 30566,
        "meta_element_set_no": 999,
        "meta_rev_at_epoch": 96232,
        "meta_bstar": 0.0016521969,
        "meta_mean_motion_dot": 3.022e-05,
        "meta_mean_motion_ddot": 0,
        "tle_line1": "1 30566U 99025ALG 25336.06623194  .00003022  00000+0  16522-2 0  9999",
        "tle_line2": "2 30566  99.2179  24.3175 0068066 211.5210 212.3000 14.11602625962327"
      },
      "geometry": {
        "type": "Point",
        "coordinates": [
          -148.10708015407064,
          37.08246257692904
        ]
      }
    },
    {
      "type": "Feature",
      "properties": {
        "norad_id": 30567,
        "name": "FENGYUN 1C DEB",
        "group": "fengyun-1c-debris",
        "lat": -20.860147186792624,
        "lon": 144.15760372479176,
        "alt_km": 793.3963951739224,
        "timestamp": "2025-12-02T13:52:17.539477+00:00",
        "meta_object_name": "FENGYUN 1C DEB",
        "meta_object_id": "1999-025ALH",
        "meta_epoch": "2025-11-30T20:34:23.183328",
        "meta_mean_motion": 14.08879999,
        "meta_eccentricity": 0.01082546,
        "meta_inclination": 98.7749,
        "meta_ra_of_asc_node": 325.8566,
        "meta_arg_of_pericenter": 223.0395,
        "meta_mean_anomaly": 255.5002,
        "meta_ephemeris_type": 0,
        "meta_classification_type": "U",
        "meta_norad_cat_id": 30567,
        "meta_element_set_no": 999,
        "meta_rev_at_epoch": 96606,
        "meta_bstar": 0.00037591556,
        "meta_mean_motion_dot": 6.42e-06,
        "meta_mean_motion_ddot": 0,
        "tle_line1": "1 30567U 99025ALH 25334.85721277  .00000642  00000+0  37592-3 0  9992",
        "tle_line2": "2 30567  98.7749 325.8566 0108254 223.0395 255.5002 14.08879999966066"
      },
      "geometry": {
        "type": "Point",
        "coordinates": [
          144.15760372479176,
          -20.860147186792624
        ]
      }
    },
    {
      "type": "Feature",
      "properties": {
        "norad_id": 30568,
        "name": "FENGYUN 1C DEB",
        "group": "fengyun-1c-debris",
        "lat": -22.59600086089659,
        "lon": -37.70190924643715,
        "alt_km": 704.5876509908321,
        "timestamp": "2025-12-02T13:52:17.539488+00:00",
        "meta_object_name": "FENGYUN 1C DEB",
        "meta_object_id": "1999-025ALJ",
        "meta_epoch": "2025-12-02T05:29:59.040384",
        "meta_mean_motion": 14.54656189,
        "meta_eccentricity": 0.00170244,
        "meta_inclination": 98.9425,
        "meta_ra_of_asc_node": 145.6827,
        "meta_arg_of_pericenter": 225.4031,
        "meta_mean_anomaly": 311.7773,
        "meta_ephemeris_type": 0,
        "meta_classification_type": "U",
        "meta_norad_cat_id": 30568,
        "meta_element_set_no": 999,
        "meta_rev_at_epoch": 97506,
        "meta_bstar": 0.0040272326,
        "meta_mean_motion_dot": 0.00017239,
        "meta_mean_motion_ddot": 0,
        "tle_line1": "1 30568U 99025ALJ 25336.22915556  .00017239  00000+0  40272-2 0  9999",
        "tle_line2": "2 30568  98.9425 145.6827 0017024 225.4031 311.7773 14.54656189975060"
      },
      "geometry": {
        "type": "Point",
        "coordinates": [
          -37.70190924643715,
          -22.59600086089659
        ]
      }
    }
  ]
}